{
  "type": "FeatureCollection",
  "features": [
    {
      "type": "Feature",
      "properties": {
        "norad_id": 32393,
        "name": "COSMOS 2434 (721)",
        "group": "gnss",
        "lat": 42.30325004943476,
        "lon": -7.617329080566725,
        "alt_km": 19119.460199489964,
        "timestamp": "2025-12-08T05:48:09.277441+00:00",
        "meta_object_name": "COSMOS 2434 (721)",
        "meta_object_id": "2007-065A",
        "meta_epoch": "2025-12-07T08:44:57.197760",
        "meta_mean_motion": 2.13101207,
        "meta_eccentricity": 0.00044814,
        "meta_inclination": 64.3148,
        "meta_ra_of_asc_node": 198.3849,
        "meta_arg_of_pericenter": 71.0403,
        "meta_mean_anomaly": 107.6412,
        "meta_ephemeris_type": 0,
        "meta_classification_type": "U",
        "meta_norad_cat_id": 32393,
        "meta_element_set_no": 999,
        "meta_rev_at_epoch": 13968,
        "meta_bstar": 0,
        "meta_mean_motion_dot": 6e-07,
        "meta_mean_motion_ddot": 0,
        "tle_line1": "1 32393U 07065A   25341.36455090  .00000060  00000+0  00000+0 0  9999",
        "tle_line2": "2 32393  64.3148 198.3849 0004481  71.0403 107.6412  2.13101207139687"
      },
      "geometry": {
        "type": "Point",
        "coordinates": [
          -7.617329080566725,
          42.30325004943476
        ]
      }
    },
    {
      "type": "Feature",
      "properties": {
        "norad_id": 32395,
        "name": "COSMOS 2436 (723)",
        "group": "gnss",
        "lat": -63.76624095879491,
        "lon": 95.93124752944304,
        "alt_km": 19148.031974553407,
        "timestamp": "2025-12-08T05:48:09.277452+00:00",
        "meta_object_name": "COSMOS 2436 (723)",
        "meta_object_id": "2007-065C",
        "meta_epoch": "2025-12-07T03:33:41.330592",
        "meta_mean_motion": 2.13100006,
        "meta_eccentricity": 0.00177394,
        "meta_inclination": 64.3236,
        "meta_ra_of_asc_node": 198.4623,
        "meta_arg_of_pericenter": 9.1382,
        "meta_mean_anomaly": 136.8175,
        "meta_ephemeris_type": 0,
        "meta_classification_type": "U",
        "meta_norad_cat_id": 32395,
        "meta_element_set_no": 999,
        "meta_rev_at_epoch": 13963,
        "meta_bstar": 0,
        "meta_mean_motion_dot": 6.2e-07,
        "meta_mean_motion_ddot": 0,
        "tle_line1": "1 32395U 07065C   25341.14839503  .00000062  00000+0  00000+0 0  9994",
        "tle_line2": "2 32395  64.3236 198.4623 0017739   9.1382 136.8175  2.13100006139637"
      },
      "geometry": {
        "type": "Point",
        "coordinates": [
          95.93124752944304,
          -63.76624095879491
        ]
      }
    },
    {
      "type": "Feature",
      "properties": {
        "norad_id": 32711,
        "name": "GPS BIIRM-6 (PRN 07)",
        "group": "gnss",
        "lat": 30.600886168175972,
        "lon": -177.4514758030179,
        "alt_km": 20658.178172656502,
        "timestamp": "2025-12-08T05:48:09.277464+00:00",
        "meta_object_name": "GPS BIIRM-6 (PRN 07)",
        "meta_object_id": "2008-012A",
        "meta_epoch": "2025-12-07T16:30:50.099904",
        "meta_mean_motion": 2.00565328,
        "meta_eccentricity": 0.02022386,
        "meta_inclination": 54.4764,
        "meta_ra_of_asc_node": 157.5746,
        "meta_arg_of_pericenter": 244.892,
        "meta_mean_anomaly": 113.0048,
        "meta_ephemeris_type": 0,
        "meta_classification_type": "U",
        "meta_norad_cat_id": 32711,
        "meta_element_set_no": 999,
        "meta_rev_at_epoch": 12991,
        "meta_bstar": 0,
        "meta_mean_motion_dot": 5.7e-07,
        "meta_mean_motion_ddot": 0,
        "tle_line1": "1 32711U 08012A   25341.68807986  .00000057  00000+0  00000+0 0  9992",
        "tle_line2": "2 32711  54.4764 157.5746 0202238 244.8920 113.0048  2.00565328129917"
      },
      "geometry": {
        "type": "Point",
        "coordinates": [
          -177.4514758030179,
          30.600886168175972
        ]
      }
    },
    {
      "type": "Feature",
      "properties": {
        "norad_id": 35752,
        "name": "GPS BIIRM-8 (PRN 05)",
        "group": "gnss",
        "lat": 44.37797784635973,
        "lon": 76.10719047185698,
        "alt_km": 20050.885208411022,
        "timestamp": "2025-12-08T05:48:09.277476+00:00",
        "meta_object_name": "GPS BIIRM-8 (PRN 05)",
        "meta_object_id": "2009-043A",
        "meta_epoch": "2025-12-07T22:53:42.029952",
        "meta_mean_motion": 2.00565864,
        "meta_eccentricity": 0.0051934,
        "meta_inclination": 56.0877,
        "meta_ra_of_asc_node": 34.9719,
        "meta_arg_of_pericenter": 81.9866,
        "meta_mean_anomaly": 127.9119,
        "meta_ephemeris_type": 0,
        "meta_classification_type": "U",
        "meta_norad_cat_id": 35752,
        "meta_element_set_no": 999,
        "meta_rev_at_epoch": 11952,
        "meta_bstar": 0,
        "meta_mean_motion_dot": -7.9e-07,
        "meta_mean_motion_ddot": 0,
        "tle_line1": "1 35752U 09043A   25341.95395868 -.00000079  00000+0  00000+0 0  9991",
        "tle_line2": "2 35752  56.0877  34.9719 0051934  81.9866 127.9119  2.00565864119524"
      },
      "geometry": {
        "type": "Point",
        "coordinates": [
          76.10719047185698,
          44.37797784635973
        ]
      }
    },
    {
      "type": "Feature",
      "properties": {
        "norad_id": 36111,
        "name": "COSMOS 2456 (730)",
        "group": "gnss",
        "lat": -59.07831995203421,
        "lon": 26.114963829290915,
        "alt_km": 19128.45487081134,
        "timestamp": "2025-12-08T05:48:09.277487+00:00",
        "meta_object_name": "COSMOS 2456 (730)",
        "meta_object_id": "2009-070A",
        "meta_epoch": "2025-12-07T20:44:40.162272",
        "meta_mean_motion": 2.13103432,
        "meta_eccentricity": 0.00030434,
        "meta_inclination": 64.8974,
        "meta_ra_of_asc_node": 77.5047,
        "meta_arg_of_pericenter": 297.6461,
        "meta_mean_anomaly": 61.5166,
        "meta_ephemeris_type": 0,
        "meta_classification_type": "U",
        "meta_norad_cat_id": 36111,
        "meta_element_set_no": 999,
        "meta_rev_at_epoch": 12434,
        "meta_bstar": 0,
        "meta_mean_motion_dot": -1.5e-07,
        "meta_mean_motion_ddot": 0,
        "tle_line1": "1 36111U 09070A   25341.86435373 -.00000015  00000+0  00000+0 0  9997",
        "tle_line2": "2 36111  64.8974  77.5047 0003043 297.6461  61.5166  2.13103432124345"
      },
      "geometry": {
        "type": "Point",
        "coordinates": [
          26.114963829290915,
          -59.07831995203421
        ]
      }
    },
    {
      "type": "Feature",
      "properties": {
        "norad_id": 36112,
        "name": "COSMOS 2457 (733)",
        "group": "gnss",
        "lat": 50.05151049524338,
        "lon": 111.3447803797564,
        "alt_km": 19126.44288167658,
        "timestamp": "2025-12-08T05:48:09.277499+00:00",
        "meta_object_name": "COSMOS 2457 (733)",
        "meta_object_id": "2009-070B",
        "meta_epoch": "2025-12-07T05:33:13.940640",
        "meta_mean_motion": 2.13100799,
        "meta_eccentricity": 0.00047672,
        "meta_inclination": 64.8824,
        "meta_ra_of_asc_node": 77.374,
        "meta_arg_of_pericenter": 157.9691,
        "meta_mean_anomaly": 204.8145,
        "meta_ephemeris_type": 0,
        "meta_classification_type": "U",
        "meta_norad_cat_id": 36112,
        "meta_element_set_no": 999,
        "meta_rev_at_epoch": 12434,
        "meta_bstar": 0,
        "meta_mean_motion_dot": -1.6e-07,
        "meta_mean_motion_ddot": 0,
        "tle_line1": "1 36112U 09070B   25341.23141135 -.00000016  00000+0  00000+0 0  9990",
        "tle_line2": "2 36112  64.8824  77.3740 0004767 157.9691 204.8145  2.13100799124347"
      },
      "geometry": {
        "type": "Point",
        "coordinates": [
          111.3447803797564,
          50.05151049524338
        ]
      }
    },
    {
      "type": "Feature",
      "properties": {
        "norad_id": 36402,
        "name": "COSMOS 2460 (732)",
        "group": "gnss",
        "lat": 50.01665371132074,
        "lon": -6.207047871286112,
        "alt_km": 19129.456796972274,
        "timestamp": "2025-12-08T05:48:09.277510+00:00",
        "meta_object_name": "COSMOS 2460 (732)",
        "meta_object_id": "2010-007C",
        "meta_epoch": "2025-12-07T11:08:59.841600",
        "meta_mean_motion": 2.13106055,
        "meta_eccentricity": 0.00027105,
        "meta_inclination": 65.5326,
        "meta_ra_of_asc_node": 320.9516,
        "meta_arg_of_pericenter": 273.9316,
        "meta_mean_anomaly": 267.1288,
        "meta_ephemeris_type": 0,
        "meta_classification_type": "U",
        "meta_norad_cat_id": 36402,
        "meta_element_set_no": 999,
        "meta_rev_at_epoch": 12264,
        "meta_bstar": 0,
        "meta_mean_motion_dot": -4.9e-07,
        "meta_mean_motion_ddot": 0,
        "tle_line1": "1 36402U 10007C   25341.46458150 -.00000049  00000+0  00000+0 0  9993",
        "tle_line2": "2 36402  65.5326 320.9516 0002710 273.9316 267.1288  2.13106055122643"
      },
      "geometry": {
        "type": "Point",
        "coordinates": [
          -6.207047871286112,
          50.01665371132074
        ]
      }
    }
  ]
}